1 24097U 94029EU  13075.79168545  .00006567  00000-0  71087-3 0  9997
2 24097 082.0095 345.5019 0108267 263.8479 153.9366 14.83856661911279
1 24097U 94029EU  13076.87314042  .00006736  00000-0  72895-3 0  9998
2 24097 082.0096 344.4186 0108190 260.2791 171.0205 14.83880722911432
1 24097U 94029EU  13078.17148212  .00004550  00000-0  49186-3 0  9996
2 24097 082.0100 343.1182 0107887 255.9710 266.8220 14.83889298911622
1 24097U 94029EU  13079.18267346  .00005826  00000-0  62990-3 0  9993
2 24097 082.0101 342.1059 0108111 252.6722 268.6370 14.83903444911775
1 24097U 94029EU  13080.19540884  .00004115  00000-0  44419-3 0  9993
2 24097 082.0100 341.0912 0108089 249.3069 278.7822 14.83907533911925
1 24097U 94029EU  13081.20661728  .00003716  00000-0  40073-3 0  9995
2 24097 082.0101 340.0787 0108191 245.9280 280.8212 14.83913190912076
1 24097U 94029EU  13082.20918691  .00002712  00000-0  29168-3 0  9997
2 24097 082.0099 339.0749 0108267 242.5967 236.7137 14.83921477912227
1 24097U 94029EU  13083.35635823  .00002481  00000-0  26664-3 0  9998
2 24097 082.0095 337.9263 0108265 238.7881 245.1184 14.83925424912391
1 24097U 94029EU  13084.75532782  .00002868  00000-0  30844-3 0  9997
2 24097 082.0087 336.5254 0108393 234.1855 158.6569 14.83929095912607
1 24097U 94029EU  13085.76663348  .00002703  00000-0  29048-3 0  9994
2 24097 082.0083 335.5125 0108460 230.8797 161.2189 14.83934620912756
1 24097U 94029EU  13087.20429925  .00003093  00000-0  33263-3 0  9993
2 24097 082.0082 334.0725 0108530 226.1216 281.5590 14.83942686912963
1 24097U 94029EU  13088.21584501  .00002928  00000-0  31471-3 0  9992
2 24097 082.0080 333.0593 0108570 222.7947 285.4724 14.83946110913116
1 24097U 94029EU  13089.28915067  .00003251  00000-0  34957-3 0  9997
2 24097 082.0080 331.9838 0108577 219.2748 259.3377 14.83957757913272
